[{"OBJECT_NAME":"SITRO-AIS 8 (ANOKHIN)","OBJECT_ID":"2023-091AD","EPOCH":"2026-03-09T23:44:40.058592","MEAN_MOTION":15.29359179,"ECCENTRICITY":0.0012509,"INCLINATION":97.5169,"RA_OF_ASC_NODE":133.2823,"ARG_OF_PERICENTER":92.0171,"MEAN_ANOMALY":268.2501,"EPHEMERIS_TYPE":0,"CLASSIFICATION_TYPE":"U","NORAD_CAT_ID":57193,"ELEMENT_SET_NO":999,"REV_AT_EPOCH":14927,"BSTAR":0.00064982524,"MEAN_MOTION_DOT":0.00018494,"MEAN_MOTION_DDOT":0},{"OBJECT_NAME":"STARLINK-35826","OBJECT_ID":"2025-254AD","EPOCH":"2026-03-09T16:12:26.707104","MEAN_MOTION":15.30208755,"ECCENTRICITY":0.00012663,"INCLINATION":53.1567,"RA_OF_ASC_NODE":229.6175,"ARG_OF_PERICENTER":46.2472,"MEAN_ANOMALY":313.8633,"EPHEMERIS_TYPE":0,"CLASSIFICATION_TYPE":"U","NORAD_CAT_ID":66375,"ELEMENT_SET_NO":999,"REV_AT_EPOCH":1901,"BSTAR":0.00043874153,"MEAN_MOTION_DOT":0.00012661,"MEAN_MOTION_DDOT":0}]
